QIANFAN-238             
1 69867U 26155V   26197.13432557  .00000230  00000+0  88595-4 0  9993
2 69867  89.0065  60.8392 0030193 220.6686 139.2254 14.26785057  1518
CZ-8A R/B               
1 69868U 26155W   26197.11660868  .00000448  00000+0  10693-3 0  9994
2 69868  88.9658  60.7865 0106150  99.7216 261.5998 14.48270314  1524
STARLINK-37886          
1 69943U 26157A   26197.16668980 -.02029668  00000+0 -82195-2 0  9992
2 69943  53.1609 291.0084 0001004  73.8261 133.5275 15.88480238  2312
STARLINK-37937          
1 69944U 26157B   26197.16668980 -.02021265  00000+0 -81538-2 0  9998
2 69944  53.1609 291.0055 0001012  78.6539 130.0529 15.88543678  2313
STARLINK-37903          
1 69945U 26157C   26197.16668980 -.02006069  00000+0 -78884-2 0  9994
2 69945  53.1605 290.9875 0000963  72.2214 145.1784 15.89023539  2312
STARLINK-37905          
1 69946U 26157D   26197.16668980 -.02009134  00000+0 -75794-2 0  9998
2 69946  53.1606 290.9587 0001018  90.3786 140.8431 15.89837513  2317
STARLINK-37904          
1 69947U 26157E   26197.16668980 -.01939568  00000+0 -74161-2 0  9998
2 69947  53.1605 290.9536 0000820  76.3703 157.2957 15.90002968  2319
STARLINK-37891          
1 69948U 26157F   26197.16668980 -.02019560  00000+0 -75143-2 0  9992
2 69948  53.1604 290.9459 0001006  84.4991 152.9269 15.90121050  2311
STARLINK-37923          
1 69949U 26157G   26197.16668980 -.02299089  13972-2 -72641-2 0  9994
2 69949  53.1604 290.9206 0001063  91.5914 158.0004 15.90800527  2316
STARLINK-37895          
1 69950U 26157H   26197.16668980 -.02303907  14069-2 -71752-2 0  9991
2 69950  53.1602 290.9095 0001005 100.6186 154.2916 15.91082269  2317
STARLINK-37841          
1 69951U 26157J   26197.16668980 -.02291936  13991-2 -69837-2 0  9994
2 69951  53.1602 290.8943 0000875  86.7606 175.4168 15.91505760  2314
STARLINK-37899          
1 69952U 26157K   26197.16668980 -.02277390  13885-2 -67864-2 0  9993
2 69952  53.1601 290.8773 0000713  87.1699 183.0971 15.91935558  2312
STARLINK-37900          
1 69953U 26157L   26197.16668980 -.02263629  13745-2 -66977-2 0  9993
2 69953  53.1600 290.8725 0000750  82.0902 190.5574 15.92070834  2311
STARLINK-37882          
1 69954U 26157M   26197.16668980 -.02272033  13905-2 -65739-2 0  9996
2 69954  53.1598 290.8581 0000728  73.1062 206.3937 15.92501416  2315
STARLINK-37928          
1 69955U 26157N   26197.16668980 -.02294730  14162-2 -66600-2 0  9999
2 69955  53.1598 290.8546 0000728  73.1090 208.1046 15.92444629  2311
STARLINK-37824          
1 69956U 26157P   26197.16668980 -.02267827  13852-2 -65703-2 0  9995
2 69956  53.1599 290.8531 0000798  79.0399 202.9535 15.92475632  2314
STARLINK-37919          
1 69957U 26157Q   26197.16668980 -.02292690  14141-2 -66484-2 0  9991
2 69957  53.1598 290.8501 0000886  84.1466 199.2320 15.92460376  2310
STARLINK-37964          
1 69958U 26157R   26197.16668980 -.02270811  13926-2 -64876-2 0  9996
2 69958  53.1599 290.8419 0000899  82.7827 204.4982 15.92743480  2312
STARLINK-37907          
1 69959U 26157S   26197.16668980 -.02243805  13666-2 -62880-2 0  9994
2 69959  53.1597 290.8299 0000774  78.4564 214.6096 15.93108809  2319
STARLINK-37901          
1 69960U 26157T   26197.16668980 -.02259756  13882-2 -62646-2 0  9998
2 69960  53.1595 290.8210 0000879  82.1323 215.2287 15.93315529  2311
STARLINK-37910          
1 69961U 26157U   26197.16668980 -.02265657  14001-2 -61718-2 0  9999
2 69961  53.1595 290.8080 0000866  87.6562 216.0042 15.93648353  2310
STARLINK-37925          
1 69962U 26157V   26197.16668980 -.02258918  13925-2 -61444-2 0  9992
2 69962  53.1595 290.8045 0000791  78.7774 226.5753 15.93675458  2316
STARLINK-37931          
1 69963U 26157W   26197.16668980 -.02288310  14282-2 -62061-2 0  9995
2 69963  53.1594 290.7975 0000640  78.8437 229.8667 15.93733977  2318
STARLINK-37914          
1 69964U 26157X   26197.16668980 -.02248098  13905-2 -58875-2 0  9994
2 69964  53.1593 290.7751 0000572  78.8320 240.5558 15.94388428  2312
STARLINK-37840          
1 69965U 26157Y   26197.16668980 -.02258891  14070-2 -58404-2 0  9999
2 69965  53.1593 290.7651 0000470  81.1774 243.0070 15.94629220  2314
STARLINK-37894          
1 69966U 26157Z   26197.16668980 -.02274757  14259-2 -58816-2 0  9995
2 69966  53.1592 290.7603 0000746  90.6174 235.8154 15.94629645  2319
STARLINK-37875          
1 69967U 26157AA  26197.16668980 -.02276749  14342-2 -57708-2 0  9991
2 69967  53.1589 290.7479 0000634  77.6479 254.7193 15.95001022  2313
STARLINK-36218          
1 69968U 26157AB  26197.16668980 -.02223717  13787-2 -54818-2 0  9990
2 69968  53.1588 290.7355 0000731  74.5844 263.6027 15.95511904  1966
STARLINK-37921          
1 69969U 26157AC  26197.16668980 -.02242529  14106-2 -53502-2 0  9998
2 69969  53.1589 290.7115 0000848  83.8191 265.8908 15.96116267  2315
