OBJECT_NAME,OBJECT_ID,EPOCH,MEAN_MOTION,ECCENTRICITY,INCLINATION,RA_OF_ASC_NODE,ARG_OF_PERICENTER,MEAN_ANOMALY,EPHEMERIS_TYPE,CLASSIFICATION_TYPE,NORAD_CAT_ID,ELEMENT_SET_NO,REV_AT_EPOCH,BSTAR,MEAN_MOTION_DOT,MEAN_MOTION_DDOT
QIANFAN-238,2026-155V,2026-07-16T03:13:25.729248,14.26785057,.0030193,89.0065,60.8392,220.6686,139.2254,0,U,69867,999,151,.88595E-4,.23E-5,0
CZ-8A R/B,2026-155W,2026-07-16T02:47:54.989952,14.48270314,.010615,88.9658,60.7865,99.7216,261.5998,0,U,69868,999,152,.10693E-3,.448E-5,0
STARLINK-37886,2026-157A,2026-07-16T04:00:01.998720,15.88480238,.0001004,53.1609,291.0084,73.8261,133.5275,0,U,69943,999,231,-.82195E-2,-.2029668E-1,0
STARLINK-37937,2026-157B,2026-07-16T04:00:01.998720,15.88543678,.0001012,53.1609,291.0055,78.6539,130.0529,0,U,69944,999,231,-.81538E-2,-.2021265E-1,0
STARLINK-37903,2026-157C,2026-07-16T04:00:01.998720,15.89023539,.0000963,53.1605,290.9875,72.2214,145.1784,0,U,69945,999,231,-.78884E-2,-.2006069E-1,0
STARLINK-37905,2026-157D,2026-07-16T04:00:01.998720,15.89837513,.0001018,53.1606,290.9587,90.3786,140.8431,0,U,69946,999,231,-.75794E-2,-.2009134E-1,0
STARLINK-37904,2026-157E,2026-07-16T04:00:01.998720,15.90002968,.000082,53.1605,290.9536,76.3703,157.2957,0,U,69947,999,231,-.74161E-2,-.1939568E-1,0
STARLINK-37891,2026-157F,2026-07-16T04:00:01.998720,15.90121050,.0001006,53.1604,290.9459,84.4991,152.9269,0,U,69948,999,231,-.75143E-2,-.201956E-1,0
STARLINK-37923,2026-157G,2026-07-16T04:00:01.998720,15.90800527,.0001063,53.1604,290.9206,91.5914,158.0004,0,U,69949,999,231,-.72641E-2,-.2299089E-1,.13972E-2
STARLINK-37895,2026-157H,2026-07-16T04:00:01.998720,15.91082269,.0001005,53.1602,290.9095,100.6186,154.2916,0,U,69950,999,231,-.71752E-2,-.2303907E-1,.14069E-2
STARLINK-37841,2026-157J,2026-07-16T04:00:01.998720,15.91505760,.0000875,53.1602,290.8943,86.7606,175.4168,0,U,69951,999,231,-.69837E-2,-.2291936E-1,.13991E-2
STARLINK-37899,2026-157K,2026-07-16T04:00:01.998720,15.91935558,.0000713,53.1601,290.8773,87.1699,183.0971,0,U,69952,999,231,-.67864E-2,-.227739E-1,.13885E-2
STARLINK-37900,2026-157L,2026-07-16T04:00:01.998720,15.92070834,.000075,53.1600,290.8725,82.0902,190.5574,0,U,69953,999,231,-.66977E-2,-.2263629E-1,.13745E-2
STARLINK-37882,2026-157M,2026-07-16T04:00:01.998720,15.92501416,.0000728,53.1598,290.8581,73.1062,206.3937,0,U,69954,999,231,-.65739E-2,-.2272033E-1,.13905E-2
STARLINK-37928,2026-157N,2026-07-16T04:00:01.998720,15.92444629,.0000728,53.1598,290.8546,73.1090,208.1046,0,U,69955,999,231,-.666E-2,-.229473E-1,.14162E-2
STARLINK-37824,2026-157P,2026-07-16T04:00:01.998720,15.92475632,.0000798,53.1599,290.8531,79.0399,202.9535,0,U,69956,999,231,-.65703E-2,-.2267827E-1,.13852E-2
STARLINK-37919,2026-157Q,2026-07-16T04:00:01.998720,15.92460376,.0000886,53.1598,290.8501,84.1466,199.2320,0,U,69957,999,231,-.66484E-2,-.229269E-1,.14141E-2
STARLINK-37964,2026-157R,2026-07-16T04:00:01.998720,15.92743480,.0000899,53.1599,290.8419,82.7827,204.4982,0,U,69958,999,231,-.64876E-2,-.2270811E-1,.13926E-2
STARLINK-37907,2026-157S,2026-07-16T04:00:01.998720,15.93108809,.0000774,53.1597,290.8299,78.4564,214.6096,0,U,69959,999,231,-.6288E-2,-.2243805E-1,.13666E-2
STARLINK-37901,2026-157T,2026-07-16T04:00:01.998720,15.93315529,.0000879,53.1595,290.8210,82.1323,215.2287,0,U,69960,999,231,-.62646E-2,-.2259756E-1,.13882E-2
STARLINK-37910,2026-157U,2026-07-16T04:00:01.998720,15.93648353,.0000866,53.1595,290.8080,87.6562,216.0042,0,U,69961,999,231,-.61718E-2,-.2265657E-1,.14001E-2
STARLINK-37925,2026-157V,2026-07-16T04:00:01.998720,15.93675458,.0000791,53.1595,290.8045,78.7774,226.5753,0,U,69962,999,231,-.61444E-2,-.2258918E-1,.13925E-2
STARLINK-37931,2026-157W,2026-07-16T04:00:01.998720,15.93733977,.000064,53.1594,290.7975,78.8437,229.8667,0,U,69963,999,231,-.62061E-2,-.228831E-1,.14282E-2
STARLINK-37914,2026-157X,2026-07-16T04:00:01.998720,15.94388428,.0000572,53.1593,290.7751,78.8320,240.5558,0,U,69964,999,231,-.58875E-2,-.2248098E-1,.13905E-2
STARLINK-37840,2026-157Y,2026-07-16T04:00:01.998720,15.94629220,.000047,53.1593,290.7651,81.1774,243.0070,0,U,69965,999,231,-.58404E-2,-.2258891E-1,.1407E-2
STARLINK-37894,2026-157Z,2026-07-16T04:00:01.998720,15.94629645,.0000746,53.1592,290.7603,90.6174,235.8154,0,U,69966,999,231,-.58816E-2,-.2274757E-1,.14259E-2
STARLINK-37875,2026-157AA,2026-07-16T04:00:01.998720,15.95001022,.0000634,53.1589,290.7479,77.6479,254.7193,0,U,69967,999,231,-.57708E-2,-.2276749E-1,.14342E-2
STARLINK-36218,2026-157AB,2026-07-16T04:00:01.998720,15.95511904,.0000731,53.1588,290.7355,74.5844,263.6027,0,U,69968,999,196,-.54818E-2,-.2223717E-1,.13787E-2
STARLINK-37921,2026-157AC,2026-07-16T04:00:01.998720,15.96116267,.0000848,53.1589,290.7115,83.8191,265.8908,0,U,69969,999,231,-.53502E-2,-.2242529E-1,.14106E-2
